LEMUR-2-ANDIS           
1 42838U 17042P   26068.55941107  .00023598  00000+0  79875-3 0  9998
2 42838  97.3659 249.7950 0009101   4.3248 355.8070 15.30557934473198
STARLINK-36092          
1 66869U 25281X   26068.17067163  .00027117  00000+0  99106-3 0  9991
2 66869  43.0018 346.6220 0001183 269.2480  90.8236 15.27588836 16097
